[Satellite]
VERSION=1.1
NAME=STPSAT-4
NICKNAME=STPSAT-4
TLE1=1 45043U 98067QY  20046.00372834  .00001707  00000-0  38840-4 0  9997
TLE2=2 45043  51.6461 237.9549 0005077 269.0481  90.9921 15.49250037  2681
STATUS=0
